{
    "links": {
        "self": "http://www.neowsapp.com/rest/v1/neo/3427739?api_key=iIulBulltgU6a56xZRHN4H3l9WmuAYTsLGpBGhQ2"
    },
    "id": "3427739",
    "neo_reference_id": "3427739",
    "name": "(2008 SW7)",
    "designation": "2008 SW7",
    "nasa_jpl_url": "http://ssd.jpl.nasa.gov/sbdb.cgi?sstr=3427739",
    "absolute_magnitude_h": 24.3,
    "estimated_diameter": {
        "kilometers": {
            "estimated_diameter_min": 0.0366906138,
            "estimated_diameter_max": 0.0820427065
        },
        "meters": {
            "estimated_diameter_min": 36.6906137531,
            "estimated_diameter_max": 82.0427064882
        },
        "miles": {
            "estimated_diameter_min": 0.0227984834,
            "estimated_diameter_max": 0.0509789586
        },
        "feet": {
            "estimated_diameter_min": 120.3760332259,
            "estimated_diameter_max": 269.1689931548
        }
    },
    "is_potentially_hazardous_asteroid": false,
    "close_approach_data": [
        {
            "close_approach_date": "2008-09-23",
            "close_approach_date_full": "2008-Sep-23 06:44",
            "epoch_date_close_approach": 1222152240000,
            "relative_velocity": {
                "kilometers_per_second": "10.4892425262",
                "kilometers_per_hour": "37761.2730943801",
                "miles_per_hour": "23463.3866068941"
            },
            "miss_distance": {
                "astronomical": "0.0491033916",
                "lunar": "19.1012193324",
                "kilometers": "7345762.793135892",
                "miles": "4564445.3435116296"
            },
            "orbiting_body": "Earth"
        }
    ],
    "orbital_data": {
        "orbit_id": "6",
        "orbit_determination_date": "2017-04-06 09:02:52",
        "first_observation_date": "2008-09-23",
        "last_observation_date": "2008-09-24",
        "data_arc_in_days": 1,
        "observations_used": 15,
        "orbit_uncertainty": "9",
        "minimum_orbit_intersection": ".0450894",
        "jupiter_tisserand_invariant": "4.213",
        "epoch_osculation": "2454733.5",
        "eccentricity": ".3523553974072343",
        "semi_major_axis": "1.616815758733669",
        "inclination": "17.52025050145812",
        "ascending_node_longitude": "178.6997098371594",
        "orbital_period": "750.9123154798216",
        "perihelion_distance": "1.047121999530788",
        "perihelion_argument": "186.747367641968",
        "aphelion_distance": "2.186509517936551",
        "perihelion_time": "2454738.356754834985",
        "mean_anomaly": "357.6715900051827",
        "mean_motion": ".4794168274760089",
        "equinox": "J2000",
        "orbit_class": {
            "orbit_class_type": "AMO",
            "orbit_class_description": "Near-Earth asteroid orbits similar to that of 1221 Amor",
            "orbit_class_range": "1.017 AU < q (perihelion) < 1.3 AU"
        }
    },
    "is_sentry_object": false
}